CCSDS_OMM_VERS = 2.0
CREATION_DATE  = 
ORIGINATOR     = 

OBJECT_NAME    = SL-14 R/B
OBJECT_ID      = 1991-042B
CENTER_NAME    = EARTH
REF_FRAME      = TEME
TIME_SYSTEM    = UTC
MEAN_ELEMENT_THEORY = SGP/SGP4

EPOCH          = 2026-01-10T18:02:56.926464
MEAN_MOTION    = 14.81771291
ECCENTRICITY   = .00185666
INCLINATION    = 82.4933
RA_OF_ASC_NODE = 274.5209
ARG_OF_PERICENTER = 72.9013
MEAN_ANOMALY   = 287.4233

EPHEMERIS_TYPE = 0
CLASSIFICATION_TYPE = U
NORAD_CAT_ID   = 21423
ELEMENT_SET_NO = 999
REV_AT_EPOCH   = 84449
BSTAR          = .52175403E-4
MEAN_MOTION_DOT = .436E-5
MEAN_MOTION_DDOT = 0

CCSDS_OMM_VERS = 2.0
CREATION_DATE  = 
ORIGINATOR     = 

OBJECT_NAME    = ERS-1
OBJECT_ID      = 1991-050A
CENTER_NAME    = EARTH
REF_FRAME      = TEME
TIME_SYSTEM    = UTC
MEAN_ELEMENT_THEORY = SGP/SGP4

EPOCH          = 2026-01-11T00:03:23.891040
MEAN_MOTION    = 14.39393434
ECCENTRICITY   = .00322179
INCLINATION    = 98.7898
RA_OF_ASC_NODE = 27.7883
ARG_OF_PERICENTER = 15.3377
MEAN_ANOMALY   = 344.8779

EPHEMERIS_TYPE = 0
CLASSIFICATION_TYPE = U
NORAD_CAT_ID   = 21574
ELEMENT_SET_NO = 999
REV_AT_EPOCH   = 80743
BSTAR          = .12519044E-3
MEAN_MOTION_DOT = .345E-5
MEAN_MOTION_DDOT = 0

CCSDS_OMM_VERS = 2.0
CREATION_DATE  = 
ORIGINATOR     = 

OBJECT_NAME    = ARIANE 40 R/B
OBJECT_ID      = 1991-050F
CENTER_NAME    = EARTH
REF_FRAME      = TEME
TIME_SYSTEM    = UTC
MEAN_ELEMENT_THEORY = SGP/SGP4

EPOCH          = 2026-01-10T15:15:16.862112
MEAN_MOTION    = 14.42841735
ECCENTRICITY   = .00021221
INCLINATION    = 98.2124
RA_OF_ASC_NODE = 65.0177
ARG_OF_PERICENTER = 236.7648
MEAN_ANOMALY   = 123.3340

EPHEMERIS_TYPE = 0
CLASSIFICATION_TYPE = U
NORAD_CAT_ID   = 21610
ELEMENT_SET_NO = 999
REV_AT_EPOCH   = 81062
BSTAR          = .11052107E-3
MEAN_MOTION_DOT = .327E-5
MEAN_MOTION_DDOT = 0

CCSDS_OMM_VERS = 2.0
CREATION_DATE  = 
ORIGINATOR     = 

OBJECT_NAME    = INTERCOSMOS 25
OBJECT_ID      = 1991-086A
CENTER_NAME    = EARTH
REF_FRAME      = TEME
TIME_SYSTEM    = UTC
MEAN_ELEMENT_THEORY = SGP/SGP4

EPOCH          = 2026-01-10T22:40:35.005440
MEAN_MOTION    = 12.11845685
ECCENTRICITY   = .14859673
INCLINATION    = 82.6083
RA_OF_ASC_NODE = 344.9091
ARG_OF_PERICENTER = 241.4034
MEAN_ANOMALY   = 102.9742

EPHEMERIS_TYPE = 0
CLASSIFICATION_TYPE = U
NORAD_CAT_ID   = 21819
ELEMENT_SET_NO = 999
REV_AT_EPOCH   = 48969
BSTAR          = .32543304E-3
MEAN_MOTION_DOT = .1638E-4
MEAN_MOTION_DDOT = 0

CCSDS_OMM_VERS = 2.0
CREATION_DATE  = 
ORIGINATOR     = 

OBJECT_NAME    = SL-8 R/B
OBJECT_ID      = 1992-008B
CENTER_NAME    = EARTH
REF_FRAME      = TEME
TIME_SYSTEM    = UTC
MEAN_ELEMENT_THEORY = SGP/SGP4

EPOCH          = 2026-01-10T21:53:02.315040
MEAN_MOTION    = 13.75965796
ECCENTRICITY   = .00335335
INCLINATION    = 82.9288
RA_OF_ASC_NODE = 310.7502
ARG_OF_PERICENTER = 297.4281
MEAN_ANOMALY   = 124.1682

EPHEMERIS_TYPE = 0
CLASSIFICATION_TYPE = U
NORAD_CAT_ID   = 21876
ELEMENT_SET_NO = 999
REV_AT_EPOCH   = 70147
BSTAR          = .92930253E-4
MEAN_MOTION_DOT = .105E-5
MEAN_MOTION_DDOT = 0

CCSDS_OMM_VERS = 2.0
CREATION_DATE  = 
ORIGINATOR     = 

OBJECT_NAME    = SL-8 R/B
OBJECT_ID      = 1992-020B
CENTER_NAME    = EARTH
REF_FRAME      = TEME
TIME_SYSTEM    = UTC
MEAN_ELEMENT_THEORY = SGP/SGP4

EPOCH          = 2026-01-10T21:00:41.646528
MEAN_MOTION    = 13.75536541
ECCENTRICITY   = .00302287
INCLINATION    = 82.9292
RA_OF_ASC_NODE = 196.6808
ARG_OF_PERICENTER = 98.9110
MEAN_ANOMALY   = 17.4552

EPHEMERIS_TYPE = 0
CLASSIFICATION_TYPE = U
NORAD_CAT_ID   = 21938
ELEMENT_SET_NO = 999
REV_AT_EPOCH   = 69318
BSTAR          = .16400263E-3
MEAN_MOTION_DOT = .174E-5
MEAN_MOTION_DDOT = 0

CCSDS_OMM_VERS = 2.0
CREATION_DATE  = 
ORIGINATOR     = 

OBJECT_NAME    = USA 81
OBJECT_ID      = 1992-023A
CENTER_NAME    = EARTH
REF_FRAME      = TEME
TIME_SYSTEM    = UTC
MEAN_ELEMENT_THEORY = SGP/SGP4

EPOCH          = 2026-01-10T22:56:23.598816
MEAN_MOTION    = 14.32340947
ECCENTRICITY   = .00014982
INCLINATION    = 85.0096
RA_OF_ASC_NODE = 164.7271
ARG_OF_PERICENTER = 116.9039
MEAN_ANOMALY   = 243.2307

EPHEMERIS_TYPE = 0
CLASSIFICATION_TYPE = U
NORAD_CAT_ID   = 21949
ELEMENT_SET_NO = 999
REV_AT_EPOCH   = 8652
BSTAR          = .77371862E-4
MEAN_MOTION_DOT = .229E-5
MEAN_MOTION_DDOT = 0

CCSDS_OMM_VERS = 2.0
CREATION_DATE  = 
ORIGINATOR     = 

OBJECT_NAME    = COSMOS 2219
OBJECT_ID      = 1992-076A
CENTER_NAME    = EARTH
REF_FRAME      = TEME
TIME_SYSTEM    = UTC
MEAN_ELEMENT_THEORY = SGP/SGP4

EPOCH          = 2026-01-10T19:09:37.587744
MEAN_MOTION    = 14.14080816
ECCENTRICITY   = .00204656
INCLINATION    = 71.0615
RA_OF_ASC_NODE = 139.0892
ARG_OF_PERICENTER = 286.9086
MEAN_ANOMALY   = 72.9793

EPHEMERIS_TYPE = 0
CLASSIFICATION_TYPE = U
NORAD_CAT_ID   = 22219
ELEMENT_SET_NO = 999
REV_AT_EPOCH   = 71019
BSTAR          = .84921577E-4
MEAN_MOTION_DOT = .115E-5
MEAN_MOTION_DDOT = 0

CCSDS_OMM_VERS = 2.0
CREATION_DATE  = 
ORIGINATOR     = 

OBJECT_NAME    = SL-16 R/B
OBJECT_ID      = 1992-076B
CENTER_NAME    = EARTH
REF_FRAME      = TEME
TIME_SYSTEM    = UTC
MEAN_ELEMENT_THEORY = SGP/SGP4

EPOCH          = 2026-01-10T20:58:54.934752
MEAN_MOTION    = 14.16847539
ECCENTRICITY   = .00132279
INCLINATION    = 71.0015
RA_OF_ASC_NODE = 310.1603
ARG_OF_PERICENTER = 193.4254
MEAN_ANOMALY   = 222.9465

EPHEMERIS_TYPE = 0
CLASSIFICATION_TYPE = U
NORAD_CAT_ID   = 22220
ELEMENT_SET_NO = 999
REV_AT_EPOCH   = 71364
BSTAR          = .16052468E-3
MEAN_MOTION_DOT = .274E-5
MEAN_MOTION_DDOT = 0

CCSDS_OMM_VERS = 2.0
CREATION_DATE  = 
ORIGINATOR     = 

OBJECT_NAME    = COSMOS 2221
OBJECT_ID      = 1992-080A
CENTER_NAME    = EARTH
REF_FRAME      = TEME
TIME_SYSTEM    = UTC
MEAN_ELEMENT_THEORY = SGP/SGP4

EPOCH          = 2026-01-10T23:36:35.861760
MEAN_MOTION    = 14.95913672
ECCENTRICITY   = .00155421
INCLINATION    = 82.5058
RA_OF_ASC_NODE = 334.3315
ARG_OF_PERICENTER = 32.6660
MEAN_ANOMALY   = 327.5520

EPHEMERIS_TYPE = 0
CLASSIFICATION_TYPE = U
NORAD_CAT_ID   = 22236
ELEMENT_SET_NO = 999
REV_AT_EPOCH   = 77216
BSTAR          = .21985678E-3
MEAN_MOTION_DOT = .2491E-4
MEAN_MOTION_DDOT = 0

CCSDS_OMM_VERS = 2.0
CREATION_DATE  = 
ORIGINATOR     = 

OBJECT_NAME    = SL-16 R/B
OBJECT_ID      = 1992-093B
CENTER_NAME    = EARTH
REF_FRAME      = TEME
TIME_SYSTEM    = UTC
MEAN_ELEMENT_THEORY = SGP/SGP4

EPOCH          = 2026-01-10T17:15:33.566400
MEAN_MOTION    = 14.15434690
ECCENTRICITY   = .00034312
INCLINATION    = 71.0216
RA_OF_ASC_NODE = 125.9637
ARG_OF_PERICENTER = 4.0135
MEAN_ANOMALY   = 356.1015

EPHEMERIS_TYPE = 0
CLASSIFICATION_TYPE = U
NORAD_CAT_ID   = 22285
ELEMENT_SET_NO = 999
REV_AT_EPOCH   = 70495
BSTAR          = .10893932E-3
MEAN_MOTION_DOT = .165E-5
MEAN_MOTION_DDOT = 0

CCSDS_OMM_VERS = 2.0
CREATION_DATE  = 
ORIGINATOR     = 

OBJECT_NAME    = COSMOS 2228
OBJECT_ID      = 1992-094A
CENTER_NAME    = EARTH
REF_FRAME      = TEME
TIME_SYSTEM    = UTC
MEAN_ELEMENT_THEORY = SGP/SGP4

EPOCH          = 2026-01-10T20:05:37.752000
MEAN_MOTION    = 14.96895393
ECCENTRICITY   = .00191222
INCLINATION    = 82.5189
RA_OF_ASC_NODE = 292.6939
ARG_OF_PERICENTER = 132.4759
MEAN_ANOMALY   = 227.8083

EPHEMERIS_TYPE = 0
CLASSIFICATION_TYPE = U
NORAD_CAT_ID   = 22286
ELEMENT_SET_NO = 999
REV_AT_EPOCH   = 76740
BSTAR          = .2106361E-3
MEAN_MOTION_DOT = .2451E-4
MEAN_MOTION_DDOT = 0

