SL-14 R/B               
1 21423U 91042B   26010.75204776  .00000436  00000+0  52175-4 0  9991
2 21423  82.4933 274.5209 0018566  72.9013 287.4233 14.81771291844499
ERS-1                   
1 21574U 91050A   26011.00235985  .00000345  00000+0  12519-3 0  9998
2 21574  98.7898  27.7883 0032217  15.3377 344.8779 14.39393434807433
ARIANE 40 R/B           
1 21610U 91050F   26010.63561183  .00000327  00000+0  11052-3 0  9990
2 21610  98.2124  65.0177 0002122 236.7648 123.3340 14.42841735810629
INTERCOSMOS 25          
1 21819U 91086A   26010.94484960  .00001638  00000+0  32543-3 0  9995
2 21819  82.6083 344.9091 1485967 241.4034 102.9742 12.11845685489690
SL-8 R/B                
1 21876U 92008B   26010.91183235  .00000105  00000+0  92930-4 0  9996
2 21876  82.9288 310.7502 0033533 297.4281 124.1682 13.75965796701472
SL-8 R/B                
1 21938U 92020B   26010.87548202  .00000174  00000+0  16400-3 0  9996
2 21938  82.9292 196.6808 0030228  98.9110  17.4552 13.75536541693189
USA 81                  
1 21949U 92023A   26010.95582869  .00000229  00000+0  77372-4 0  9994
2 21949  85.0096 164.7271 0001498 116.9039 243.2307 14.32340947 86523
COSMOS 2219             
1 22219U 92076A   26010.79835171  .00000115  00000+0  84922-4 0  9995
2 22219  71.0615 139.0892 0020465 286.9086  72.9793 14.14080816710194
SL-16 R/B               
1 22220U 92076B   26010.87424693  .00000274  00000+0  16052-3 0  9993
2 22220  71.0015 310.1603 0013227 193.4254 222.9465 14.16847539713640
COSMOS 2221             
1 22236U 92080A   26010.98374840  .00002491  00000+0  21986-3 0  9990
2 22236  82.5058 334.3315 0015542  32.6660 327.5520 14.95913672772161
SL-16 R/B               
1 22285U 92093B   26010.71913850  .00000165  00000+0  10894-3 0  9991
2 22285  71.0216 125.9637 0003431   4.0135 356.1015 14.15434690704958
COSMOS 2228             
1 22286U 92094A   26010.83724250  .00002451  00000+0  21064-3 0  9991
2 22286  82.5189 292.6939 0019122 132.4759 227.8083 14.96895393767402
